[{"OBJECT_NAME":"STARLINK-5123","OBJECT_ID":"2022-125R","EPOCH":"2026-03-09T16:45:17.933472","MEAN_MOTION":15.08824756,"ECCENTRICITY":0.00011894,"INCLINATION":53.2172,"RA_OF_ASC_NODE":219.0753,"ARG_OF_PERICENTER":71.5761,"MEAN_ANOMALY":288.536,"EPHEMERIS_TYPE":0,"CLASSIFICATION_TYPE":"U","NORAD_CAT_ID":53979,"ELEMENT_SET_NO":999,"REV_AT_EPOCH":18939,"BSTAR":8.669613e-5,"MEAN_MOTION_DOT":1.092e-5,"MEAN_MOTION_DDOT":0},{"OBJECT_NAME":"CZ-6A DEB","OBJECT_ID":"2024-126C","EPOCH":"2026-03-09T22:45:09.534528","MEAN_MOTION":15.08339588,"ECCENTRICITY":0.00034995,"INCLINATION":97.8272,"RA_OF_ASC_NODE":88.0703,"ARG_OF_PERICENTER":249.9832,"MEAN_ANOMALY":110.1019,"EPHEMERIS_TYPE":0,"CLASSIFICATION_TYPE":"U","NORAD_CAT_ID":60213,"ELEMENT_SET_NO":999,"REV_AT_EPOCH":9177,"BSTAR":0.0010886629,"MEAN_MOTION_DOT":0.00016868,"MEAN_MOTION_DDOT":0}]
